Satellite: LituanicaSAT 2
Catalog number: 42768
Epoch time: 17348.463484
Element set: 999
Inclination: 97.429200 deg
RA of node: 45.816900 deg
Eccentricity: 0.001580
Arg of perigee: 359.066200 deg
Mean anomaly: 1.054100 deg
Mean motion: 15.205733 rev/day
Decay rate: 2.543000e-05 rev/day^2
Epoch rev: 264

Satellite: Aalto 1
Catalog number: 42775
Epoch time: 17348.708668
Element set: 999
Inclination: 97.428000 deg
RA of node: 46.095500 deg
Eccentricity: 0.001413
Arg of perigee: 356.789600 deg
Mean anomaly: 3.324600 deg
Mean motion: 15.204007 rev/day
Decay rate: 9.300000e-06 rev/day^2
Epoch rev: 2646

Satellite: URSA MAIOR
Catalog number: 42776
Epoch time: 17348.176986
Element set: 999
Inclination: 97.428400 deg
RA of node: 45.590400 deg
Eccentricity: 0.001404
Arg of perigee: 358.941600 deg
Mean anomaly: 1.178700 deg
Mean motion: 15.204598 rev/day
Decay rate: 1.008000e-05 rev/day^2
Epoch rev: 2638

Satellite: Max Valier Sat
Catalog number: 42778
Epoch time: 17348.196552
Element set: 999
Inclination: 97.430200 deg
RA of node: 45.753100 deg
Eccentricity: 0.001269
Arg of perigee: 5.081200 deg
Mean anomaly: 355.055000 deg
Mean motion: 15.209031 rev/day
Decay rate: 1.153000e-05 rev/day^2
Epoch rev: 2638

Satellite: Pegasus
Catalog number: 42784
Epoch time: 17348.366816
Element set: 999
Inclination: 97.428400 deg
RA of node: 45.944100 deg
Eccentricity: 0.001268
Arg of perigee: 11.770100 deg
Mean anomaly: 348.382800 deg
Mean motion: 15.211819 rev/day
Decay rate: 1.373000e-05 rev/day^2
Epoch rev: 264

Satellite: NUDATSat
Catalog number: 42787
Epoch time: 17348.605262
Element set: 999
Inclination: 97.429100 deg
RA of node: 46.237500 deg
Eccentricity: 0.001219
Arg of perigee: 11.508900 deg
Mean anomaly: 348.642400 deg
Mean motion: 15.215531 rev/day
Decay rate: 1.943000e-05 rev/day^2
Epoch rev: 262

Satellite: SUCHAI 1
Catalog number: 42788
Epoch time: 17348.417560
Element set: 999
Inclination: 97.428400 deg
RA of node: 46.027000 deg
Eccentricity: 0.001231
Arg of perigee: 11.931900 deg
Mean anomaly: 348.220600 deg
Mean motion: 15.213735 rev/day
Decay rate: 1.627000e-05 rev/day^2
Epoch rev: 2649

Satellite: SKCUBE
Catalog number: 42789
Epoch time: 17348.612018
Element set: 999
Inclination: 97.428200 deg
RA of node: 46.223100 deg
Eccentricity: 0.001211
Arg of perigee: 11.358500 deg
Mean anomaly: 348.792100 deg
Mean motion: 15.213730 rev/day
Decay rate: 1.428000e-05 rev/day^2
Epoch rev: 264

Satellite: VZLUSAT 1
Catalog number: 42790
Epoch time: 17348.400686
Element set: 999
Inclination: 97.428700 deg
RA of node: 46.043700 deg
Eccentricity: 0.001179
Arg of perigee: 12.840700 deg
Mean anomaly: 347.312700 deg
Mean motion: 15.215883 rev/day
Decay rate: 2.187000e-05 rev/day^2
Epoch rev: 264

Satellite: VENTA 1
Catalog number: 42791
Epoch time: 17348.601303
Element set: 999
Inclination: 97.428200 deg
RA of node: 46.236200 deg
Eccentricity: 0.001176
Arg of perigee: 12.360400 deg
Mean anomaly: 347.791800 deg
Mean motion: 15.214450 rev/day
Decay rate: 1.354000e-05 rev/day^2
Epoch rev: 264

Satellite: Robusta 1B
Catalog number: 42792
Epoch time: 17348.202733
Element set: 999
Inclination: 97.428100 deg
RA of node: 45.847300 deg
Eccentricity: 0.001176
Arg of perigee: 14.143100 deg
Mean anomaly: 346.013200 deg
Mean motion: 15.215055 rev/day
Decay rate: 1.527000e-05 rev/day^2
Epoch rev: 263

Satellite: D-SAT
Catalog number: 42794
Epoch time: 17348.465159
Element set: 999
Inclination: 97.620000 deg
RA of node: 44.830800 deg
Eccentricity: 0.012755
Arg of perigee: 176.050900 deg
Mean anomaly: 184.174800 deg
Mean motion: 14.907352 rev/day
Decay rate: 3.780000e-06 rev/day^2
Epoch rev: 262

Satellite: BIRD-J
Catalog number: 42820
Epoch time: 17348.827535
Element set: 999
Inclination: 51.636600 deg
RA of node: 213.781800 deg
Eccentricity: 0.000385
Arg of perigee: 172.884700 deg
Mean anomaly: 187.220200 deg
Mean motion: 15.607760 rev/day
Decay rate: 1.306100e-04 rev/day^2
Epoch rev: 2500

Satellite: BIRD-G
Catalog number: 42821
Epoch time: 17348.070177
Element set: 999
Inclination: 51.636800 deg
RA of node: 217.723800 deg
Eccentricity: 0.000377
Arg of perigee: 172.767200 deg
Mean anomaly: 187.337600 deg
Mean motion: 15.605445 rev/day
Decay rate: 1.648500e-04 rev/day^2
Epoch rev: 2486

Satellite: BIRD-M
Catalog number: 42822
Epoch time: 17348.581184
Element set: 999
Inclination: 51.636800 deg
RA of node: 215.138000 deg
Eccentricity: 0.000372
Arg of perigee: 176.241900 deg
Mean anomaly: 183.860300 deg
Mean motion: 15.606285 rev/day
Decay rate: 1.354800e-04 rev/day^2
Epoch rev: 249

Satellite: BIRD-B
Catalog number: 42823
Epoch time: 17348.775063
Element set: 999
Inclination: 51.637200 deg
RA of node: 214.189000 deg
Eccentricity: 0.000611
Arg of perigee: 204.082400 deg
Mean anomaly: 155.988400 deg
Mean motion: 15.606424 rev/day
Decay rate: 1.312400e-04 rev/day^2
Epoch rev: 2497

Satellite: BIRD-N
Catalog number: 42824
Epoch time: 17348.078153
Element set: 999
Inclination: 51.638000 deg
RA of node: 217.789000 deg
Eccentricity: 0.000598
Arg of perigee: 201.486300 deg
Mean anomaly: 158.588000 deg
Mean motion: 15.605228 rev/day
Decay rate: 1.626100e-04 rev/day^2
Epoch rev: 2485

Satellite: TechnoSat
Catalog number: 42829
Epoch time: 17348.849826
Element set: 999
Inclination: 97.608000 deg
RA of node: 252.993200 deg
Eccentricity: 0.001583
Arg of perigee: 92.194200 deg
Mean anomaly: 268.108900 deg
Mean motion: 14.907370 rev/day
Decay rate: 1.160000e-06 rev/day^2
Epoch rev: 2287

Satellite: Mayak
Catalog number: 42830
Epoch time: 17348.835636
Element set: 999
Inclination: 97.608700 deg
RA of node: 253.023800 deg
Eccentricity: 0.001590
Arg of perigee: 89.367500 deg
Mean anomaly: 270.936600 deg
Mean motion: 14.910113 rev/day
Decay rate: 8.580000e-06 rev/day^2
Epoch rev: 2286

Satellite: OBJECT MZ
Catalog number: 42910
Epoch time: 17348.823986
Element set: 999
Inclination: 51.636100 deg
RA of node: 215.247800 deg
Eccentricity: 0.000638
Arg of perigee: 229.459100 deg
Mean anomaly: 130.584700 deg
Mean motion: 15.590487 rev/day
Decay rate: 9.567000e-05 rev/day^2
Epoch rev: 1857

Satellite: OBJECT NA
Catalog number: 42911
Epoch time: 17348.815772
Element set: 999
Inclination: 51.637500 deg
RA of node: 215.212500 deg
Eccentricity: 0.000609
Arg of perigee: 222.805700 deg
Mean anomaly: 137.246200 deg
Mean motion: 15.593490 rev/day
Decay rate: 1.174900e-04 rev/day^2
Epoch rev: 1855

