LituanicaSAT 2
1 42768U 17036D   17348.46348395  .00002543  00000-0  11897-3 0  9992
2 42768 097.4292 045.8169 0015800 359.0662 001.0541 15.20573284026488
Aalto 1
1 42775U 17036L   17348.70866806  .00000930  00000-0  45770-4 0  9995
2 42775  97.4280  46.0955 0014126 356.7896   3.3246 15.20400663 26467
URSA MAIOR
1 42776U 17036M   17348.17698592  .00001008  00000-0  49241-4 0  9996
2 42776  97.4284  45.5904 0014039 358.9416   1.1787 15.20459840 26383
Max Valier Sat
1 42778U 17036P   17348.19655164  .00001153  00000-0  55190-4 0  9999
2 42778  97.4302  45.7531 0012693   5.0812 355.0550 15.20903099 26387
Pegasus
1 42784U 17036V   17348.36681609  .00001373  00000-0  64601-4 0  9999
2 42784 097.4284 045.9441 0012677 011.7701 348.3828 15.21181886026418
NUDATSat
1 42787U 17036Y   17348.60526168  .00001943  00000-0  89170-4 0  9998
2 42787 097.4291 046.2375 0012193 011.5089 348.6424 15.21553053026299
SUCHAI 1
1 42788U 17036Z   17348.41755955  .00001627  00000-0  75567-4 0  9990
2 42788  97.4284  46.0270 0012310  11.9319 348.2206 15.21373536 26497
SKCUBE
1 42789U 17036AA  17348.61201814  .00001428  00000-0  66718-4 0  9990
2 42789 097.4282 046.2231 0012113 011.3585 348.7921 15.21373044026443
VZLUSAT 1
1 42790U 17036AB  17348.40068634  .00002187  00000-0  99892-4 0  9992
2 42790 097.4287 046.0437 0011788 012.8407 347.3127 15.21588304026419
VENTA 1
1 42791U 17036AC  17348.60130256  .00001354  00000-0  63314-4 0  9990
2 42791 097.4282 046.2362 0011761 012.3604 347.7918 15.21444974026437
Robusta 1B
1 42792U 17036AD  17348.20273265  .00001527  00000-0  70877-4 0  9999
2 42792 097.4281 045.8473 0011764 014.1431 346.0132 15.21505531026398
D-SAT
1 42794U 17036AF  17348.46515905  .00000378  00000-0  38508-4 0  9997
2 42794 097.6200 044.8308 0127554 176.0509 184.1748 14.90735222026209
BIRD-J
1 42820U 98067MU  17348.82753490  .00013061  00000-0  15968-3 0  9990
2 42820  51.6366 213.7818 0003848 172.8847 187.2202 15.60775988 25000
BIRD-G
1 42821U 98067MV  17348.07017667  .00016485  00000-0  20161-3 0  9991
2 42821  51.6368 217.7238 0003774 172.7672 187.3376 15.60544507 24863
BIRD-M
1 42822U 98067MW  17348.58118440  .00013548  00000-0  16632-3 0  9994
2 42822 051.6368 215.1380 0003722 176.2419 183.8603 15.60628507024963
BIRD-B
1 42823U 98067MX  17348.77506293  .00013124  00000-0  16118-3 0  9992
2 42823  51.6372 214.1890 0006113 204.0824 155.9884 15.60642373 24970
BIRD-N
1 42824U 98067MY  17348.07815338  .00016261  00000-0  19905-3 0  9991
2 42824  51.6380 217.7890 0005982 201.4863 158.5880 15.60522843 24857
TechnoSat
1 42829U 17042E   17348.84982625  .00000116  00000-0  17297-4 0  9994
2 42829  97.6080 252.9932 0015826  92.1942 268.1089 14.90736965 22871
Mayak
1 42830U 17042F   17348.83563632  .00000858  00000-0  92037-4 0  9996
2 42830  97.6087 253.0238 0015898  89.3675 270.9366 14.91011333 22865
OBJECT MZ
1 42910U 98067MZ  17348.82398611  .00009567  00000-0  12656-3 0  9997
2 42910  51.6361 215.2478 0006384 229.4591 130.5847 15.59048725 18577
OBJECT NA
1 42911U 98067NA  17348.81577181  .00011749  00000-0  15220-3 0  9993
2 42911  51.6375 215.2125 0006090 222.8057 137.2462 15.59348985 18556
